[{"OBJECT_NAME":"STARLINK-30290","OBJECT_ID":"2023-141U","EPOCH":"2026-03-09T21:42:48.111264","MEAN_MOTION":15.30188001,"ECCENTRICITY":0.00011985,"INCLINATION":53.1595,"RA_OF_ASC_NODE":282.9306,"ARG_OF_PERICENTER":98.1597,"MEAN_ANOMALY":261.9539,"EPHEMERIS_TYPE":0,"CLASSIFICATION_TYPE":"U","NORAD_CAT_ID":57858,"ELEMENT_SET_NO":999,"REV_AT_EPOCH":14036,"BSTAR":4.41569e-7,"MEAN_MOTION_DOT":-3.46e-6,"MEAN_MOTION_DDOT":0},{"OBJECT_NAME":"OBJECT H","OBJECT_ID":"2022-023H","EPOCH":"2026-03-09T22:57:41.313888","MEAN_MOTION":15.21889274,"ECCENTRICITY":0.00933376,"INCLINATION":63.6345,"RA_OF_ASC_NODE":356.5929,"ARG_OF_PERICENTER":305.1945,"MEAN_ANOMALY":54.0457,"EPHEMERIS_TYPE":0,"CLASSIFICATION_TYPE":"U","NORAD_CAT_ID":51953,"ELEMENT_SET_NO":999,"REV_AT_EPOCH":22114,"BSTAR":0.00043867493,"MEAN_MOTION_DOT":0.00011084,"MEAN_MOTION_DDOT":0}]
